[{"OBJECT_NAME":"STARLINK-33981","OBJECT_ID":"2025-094AA","EPOCH":"2026-03-09T16:55:19.663680","MEAN_MOTION":14.98341865,"ECCENTRICITY":0.0002901,"INCLINATION":70.0026,"RA_OF_ASC_NODE":234.4853,"ARG_OF_PERICENTER":262.0511,"MEAN_ANOMALY":98.0319,"EPHEMERIS_TYPE":0,"CLASSIFICATION_TYPE":"U","NORAD_CAT_ID":63888,"ELEMENT_SET_NO":999,"REV_AT_EPOCH":4720,"BSTAR":0.00056996357,"MEAN_MOTION_DOT":6.716e-5,"MEAN_MOTION_DDOT":0},{"OBJECT_NAME":"CZ-4B DEB","OBJECT_ID":"2013-057F","EPOCH":"2026-03-09T03:59:35.491200","MEAN_MOTION":14.62993298,"ECCENTRICITY":0.0160754,"INCLINATION":74.9188,"RA_OF_ASC_NODE":336.3162,"ARG_OF_PERICENTER":85.8895,"MEAN_ANOMALY":276.0632,"EPHEMERIS_TYPE":0,"CLASSIFICATION_TYPE":"U","NORAD_CAT_ID":40533,"ELEMENT_SET_NO":999,"REV_AT_EPOCH":57882,"BSTAR":0.0010233869,"MEAN_MOTION_DOT":6.305e-5,"MEAN_MOTION_DDOT":0}]
